[{"OBJECT_NAME":"WORLDVIEW-2 (WV-2)","OBJECT_ID":"2009-055A","EPOCH":"2026-03-09T22:27:15.689664","MEAN_MOTION":14.37910721,"ECCENTRICITY":0.00050548,"INCLINATION":98.4692,"RA_OF_ASC_NODE":143.7977,"ARG_OF_PERICENTER":144.7175,"MEAN_ANOMALY":215.4347,"EPHEMERIS_TYPE":0,"CLASSIFICATION_TYPE":"U","NORAD_CAT_ID":35946,"ELEMENT_SET_NO":999,"REV_AT_EPOCH":86138,"BSTAR":7.9928144e-5,"MEAN_MOTION_DOT":1.98e-6,"MEAN_MOTION_DDOT":0},{"OBJECT_NAME":"CZ-6A DEB","OBJECT_ID":"2022-151CU","EPOCH":"2026-03-09T23:43:09.336864","MEAN_MOTION":14.28458109,"ECCENTRICITY":0.01090015,"INCLINATION":98.6816,"RA_OF_ASC_NODE":88.0868,"ARG_OF_PERICENTER":31.0836,"MEAN_ANOMALY":329.6734,"EPHEMERIS_TYPE":0,"CLASSIFICATION_TYPE":"U","NORAD_CAT_ID":54349,"ELEMENT_SET_NO":999,"REV_AT_EPOCH":17255,"BSTAR":0.0003995635,"MEAN_MOTION_DOT":1.022e-5,"MEAN_MOTION_DDOT":0}]
